ONEWEB-0405             
1 50485U 21132S   26140.51278254  .00000076  00000+0  16032-3 0  9995
2 50485  87.9175 340.9459 0001477  96.9574 263.1726 13.18684651218342
ONEWEB-0406             
1 50486U 21132T   26140.50436437  .00000032  00000+0  49332-4 0  9996
2 50486  87.9164 340.9666 0002262  98.8155 261.3234 13.18687716217977
ONEWEB-0407             
1 50487U 21132U   26140.49760387  .00000042  00000+0  72889-4 0  9993
2 50487  87.9175 340.9582 0001721  81.9110 278.2218 13.18685539217914
ONEWEB-0409             
1 50488U 21132V   26140.17629074 -.00000487  00000+0 -14113-2 0  9995
2 50488  87.8922  26.6257 0001861  90.1347 269.9994 13.11418112211916
ONEWEB-0412             
1 50489U 21132W   26140.48581295 -.00000004  00000+0 -43638-4 0  9993
2 50489  87.9171 340.9698 0002021  79.8237 280.3123 13.18687650218006
ONEWEB-0413             
1 50490U 21132X   26140.49087066  .00000015  00000+0  45987-5 0  9993
2 50490  87.9164 340.9696 0001881  78.4190 281.7154 13.18687084217946
ONEWEB-0414             
1 50491U 21132Y   26140.55156174 -.00000027  00000+0 -10121-3 0  9993
2 50491  87.9174 340.9366 0001998  85.7385 274.3975 13.18687032217984
ONEWEB-0417             
1 50492U 21132Z   26140.25649701  .00000015  00000+0  52136-5 0  9993
2 50492  87.9162 341.0174 0001956  93.8283 266.3073 13.18687974217921
ONEWEB-0418             
1 50493U 21132AA  26140.56997130  .00000035  00000+0  56157-4 0  9998
2 50493  87.9173 340.9521 0001996  95.5060 264.6300 13.18685224218026
ONEWEB-0419             
1 50494U 21132AB  26140.51225591  .00000021  00000+0  21537-4 0  9998
2 50494  87.9173 340.9628 0001799  96.1276 264.0061 13.18663874217936
ONEWEB-0420             
1 50495U 21132AC  26140.55324384  .00000025  00000+0  31775-4 0  9992
2 50495  87.9162 340.9605 0001715  82.6638 277.4689 13.18687589217933
ONEWEB-0421             
1 50496U 21132AD  26140.31887638  .00000007  00000+0 -13843-4 0  9990
2 50496  87.9169 341.0033 0002213  83.8009 276.3376 13.18685303217941
ONEWEB-0424             
1 50497U 21132AE  26140.50773867  .00000056  00000+0  11026-3 0  9993
2 50497  87.9173 340.9628 0001615  97.4995 262.6321 13.18687225217993
ONEWEB-0426             
1 50498U 21132AF  26140.54231651 -.00000055  00000+0 -17179-3 0  9994
2 50498  87.9172 340.9472 0002545  92.5598 267.5826 13.18686715217940
ONEWEB-0427             
1 50499U 21132AG  26140.50604272  .00000061  00000+0  12263-3 0  9998
2 50499  87.9175 340.9425 0002002  93.2110 266.9252 13.18686750217965
ONEWEB-0429             
1 50500U 21132AH  26140.49255221  .00000015  00000+0  46692-5 0  9999
2 50500  87.9164 340.9720 0001758  84.0799 276.0534 13.18688892217933
