[{"OBJECT_NAME":"ONEWEB-0405","OBJECT_ID":"2021-132S","EPOCH":"2026-05-20T12:18:24.411456","MEAN_MOTION":13.18684651,"ECCENTRICITY":0.0001477,"INCLINATION":87.9175,"RA_OF_ASC_NODE":340.9459,"ARG_OF_PERICENTER":96.9574,"MEAN_ANOMALY":263.1726,"EPHEMERIS_TYPE":0,"CLASSIFICATION_TYPE":"U","NORAD_CAT_ID":50485,"ELEMENT_SET_NO":999,"REV_AT_EPOCH":21834,"BSTAR":0.00016031999999999998,"MEAN_MOTION_DOT":7.6e-07,"MEAN_MOTION_DDOT":0.0},{"OBJECT_NAME":"ONEWEB-0406","OBJECT_ID":"2021-132T","EPOCH":"2026-05-20T12:06:17.081568","MEAN_MOTION":13.18687716,"ECCENTRICITY":0.0002262,"INCLINATION":87.9164,"RA_OF_ASC_NODE":340.9666,"ARG_OF_PERICENTER":98.8155,"MEAN_ANOMALY":261.3234,"EPHEMERIS_TYPE":0,"CLASSIFICATION_TYPE":"U","NORAD_CAT_ID":50486,"ELEMENT_SET_NO":999,"REV_AT_EPOCH":21797,"BSTAR":4.9332e-05,"MEAN_MOTION_DOT":3.2e-07,"MEAN_MOTION_DDOT":0.0},{"OBJECT_NAME":"ONEWEB-0407","OBJECT_ID":"2021-132U","EPOCH":"2026-05-20T11:56:32.974368","MEAN_MOTION":13.18685539,"ECCENTRICITY":0.0001721,"INCLINATION":87.9175,"RA_OF_ASC_NODE":340.9582,"ARG_OF_PERICENTER":81.911,"MEAN_ANOMALY":278.2218,"EPHEMERIS_TYPE":0,"CLASSIFICATION_TYPE":"U","NORAD_CAT_ID":50487,"ELEMENT_SET_NO":999,"REV_AT_EPOCH":21791,"BSTAR":7.288900000000001e-05,"MEAN_MOTION_DOT":4.2e-07,"MEAN_MOTION_DDOT":0.0},{"OBJECT_NAME":"ONEWEB-0409","OBJECT_ID":"2021-132V","EPOCH":"2026-05-20T04:13:51.519936","MEAN_MOTION":13.11418112,"ECCENTRICITY":0.0001861,"INCLINATION":87.8922,"RA_OF_ASC_NODE":26.6257,"ARG_OF_PERICENTER":90.1347,"MEAN_ANOMALY":269.9994,"EPHEMERIS_TYPE":0,"CLASSIFICATION_TYPE":"U","NORAD_CAT_ID":50488,"ELEMENT_SET_NO":999,"REV_AT_EPOCH":21191,"BSTAR":-0.0014113,"MEAN_MOTION_DOT":-4.87e-06,"MEAN_MOTION_DDOT":0.0},{"OBJECT_NAME":"ONEWEB-0412","OBJECT_ID":"2021-132W","EPOCH":"2026-05-20T11:39:34.238880","MEAN_MOTION":13.1868765,"ECCENTRICITY":0.0002021,"INCLINATION":87.9171,"RA_OF_ASC_NODE":340.9698,"ARG_OF_PERICENTER":79.8237,"MEAN_ANOMALY":280.3123,"EPHEMERIS_TYPE":0,"CLASSIFICATION_TYPE":"U","NORAD_CAT_ID":50489,"ELEMENT_SET_NO":999,"REV_AT_EPOCH":21800,"BSTAR":-4.3638e-05,"MEAN_MOTION_DOT":-4e-08,"MEAN_MOTION_DDOT":0.0},{"OBJECT_NAME":"ONEWEB-0413","OBJECT_ID":"2021-132X","EPOCH":"2026-05-20T11:46:51.225024","MEAN_MOTION":13.18687084,"ECCENTRICITY":0.0001881,"INCLINATION":87.9164,"RA_OF_ASC_NODE":340.9696,"ARG_OF_PERICENTER":78.419,"MEAN_ANOMALY":281.7154,"EPHEMERIS_TYPE":0,"CLASSIFICATION_TYPE":"U","NORAD_CAT_ID":50490,"ELEMENT_SET_NO":999,"REV_AT_EPOCH":21794,"BSTAR":4.5987000000000005e-06,"MEAN_MOTION_DOT":1.5e-07,"MEAN_MOTION_DDOT":0.0},{"OBJECT_NAME":"ONEWEB-0414","OBJECT_ID":"2021-132Y","EPOCH":"2026-05-20T13:14:14.934336","MEAN_MOTION":13.18687032,"ECCENTRICITY":0.0001998,"INCLINATION":87.9174,"RA_OF_ASC_NODE":340.9366,"ARG_OF_PERICENTER":85.7385,"MEAN_ANOMALY":274.3975,"EPHEMERIS_TYPE":0,"CLASSIFICATION_TYPE":"U","NORAD_CAT_ID":50491,"ELEMENT_SET_NO":999,"REV_AT_EPOCH":21798,"BSTAR":-0.00010121,"MEAN_MOTION_DOT":-2.7e-07,"MEAN_MOTION_DDOT":0.0},{"OBJECT_NAME":"ONEWEB-0417","OBJECT_ID":"2021-132Z","EPOCH":"2026-05-20T06:09:21.341664","MEAN_MOTION":13.18687974,"ECCENTRICITY":0.0001956,"INCLINATION":87.9162,"RA_OF_ASC_NODE":341.0174,"ARG_OF_PERICENTER":93.8283,"MEAN_ANOMALY":266.3073,"EPHEMERIS_TYPE":0,"CLASSIFICATION_TYPE":"U","NORAD_CAT_ID":50492,"ELEMENT_SET_NO":999,"REV_AT_EPOCH":21792,"BSTAR":5.213600000000001e-06,"MEAN_MOTION_DOT":1.5e-07,"MEAN_MOTION_DDOT":0.0},{"OBJECT_NAME":"ONEWEB-0418","OBJECT_ID":"2021-132AA","EPOCH":"2026-05-20T13:40:45.520320","MEAN_MOTION":13.18685224,"ECCENTRICITY":0.0001996,"INCLINATION":87.9173,"RA_OF_ASC_NODE":340.9521,"ARG_OF_PERICENTER":95.506,"MEAN_ANOMALY":264.63,"EPHEMERIS_TYPE":0,"CLASSIFICATION_TYPE":"U","NORAD_CAT_ID":50493,"ELEMENT_SET_NO":999,"REV_AT_EPOCH":21802,"BSTAR":5.6157000000000005e-05,"MEAN_MOTION_DOT":3.5e-07,"MEAN_MOTION_DDOT":0.0},{"OBJECT_NAME":"ONEWEB-0419","OBJECT_ID":"2021-132AB","EPOCH":"2026-05-20T12:17:38.910624","MEAN_MOTION":13.18663874,"ECCENTRICITY":0.0001799,"INCLINATION":87.9173,"RA_OF_ASC_NODE":340.9628,"ARG_OF_PERICENTER":96.1276,"MEAN_ANOMALY":264.0061,"EPHEMERIS_TYPE":0,"CLASSIFICATION_TYPE":"U","NORAD_CAT_ID":50494,"ELEMENT_SET_NO":999,"REV_AT_EPOCH":21793,"BSTAR":2.1537e-05,"MEAN_MOTION_DOT":2.1e-07,"MEAN_MOTION_DDOT":0.0},{"OBJECT_NAME":"ONEWEB-0420","OBJECT_ID":"2021-132AC","EPOCH":"2026-05-20T13:16:40.267776","MEAN_MOTION":13.18687589,"ECCENTRICITY":0.0001715,"INCLINATION":87.9162,"RA_OF_ASC_NODE":340.9605,"ARG_OF_PERICENTER":82.6638,"MEAN_ANOMALY":277.4689,"EPHEMERIS_TYPE":0,"CLASSIFICATION_TYPE":"U","NORAD_CAT_ID":50495,"ELEMENT_SET_NO":999,"REV_AT_EPOCH":21793,"BSTAR":3.1775e-05,"MEAN_MOTION_DOT":2.5e-07,"MEAN_MOTION_DDOT":0.0},{"OBJECT_NAME":"ONEWEB-0421","OBJECT_ID":"2021-132AD","EPOCH":"2026-05-20T07:39:10.919232","MEAN_MOTION":13.18685303,"ECCENTRICITY":0.0002213,"INCLINATION":87.9169,"RA_OF_ASC_NODE":341.0033,"ARG_OF_PERICENTER":83.8009,"MEAN_ANOMALY":276.3376,"EPHEMERIS_TYPE":0,"CLASSIFICATION_TYPE":"U","NORAD_CAT_ID":50496,"ELEMENT_SET_NO":999,"REV_AT_EPOCH":21794,"BSTAR":-1.3843000000000001e-05,"MEAN_MOTION_DOT":7e-08,"MEAN_MOTION_DDOT":0.0},{"OBJECT_NAME":"ONEWEB-0424","OBJECT_ID":"2021-132AE","EPOCH":"2026-05-20T12:11:08.621088","MEAN_MOTION":13.18687225,"ECCENTRICITY":0.0001615,"INCLINATION":87.9173,"RA_OF_ASC_NODE":340.9628,"ARG_OF_PERICENTER":97.4995,"MEAN_ANOMALY":262.6321,"EPHEMERIS_TYPE":0,"CLASSIFICATION_TYPE":"U","NORAD_CAT_ID":50497,"ELEMENT_SET_NO":999,"REV_AT_EPOCH":21799,"BSTAR":0.00011026,"MEAN_MOTION_DOT":5.6e-07,"MEAN_MOTION_DDOT":0.0},{"OBJECT_NAME":"ONEWEB-0426","OBJECT_ID":"2021-132AF","EPOCH":"2026-05-20T13:00:56.146464","MEAN_MOTION":13.18686715,"ECCENTRICITY":0.0002545,"INCLINATION":87.9172,"RA_OF_ASC_NODE":340.9472,"ARG_OF_PERICENTER":92.5598,"MEAN_ANOMALY":267.5826,"EPHEMERIS_TYPE":0,"CLASSIFICATION_TYPE":"U","NORAD_CAT_ID":50498,"ELEMENT_SET_NO":999,"REV_AT_EPOCH":21794,"BSTAR":-0.00017179,"MEAN_MOTION_DOT":-5.5e-07,"MEAN_MOTION_DDOT":0.0},{"OBJECT_NAME":"ONEWEB-0427","OBJECT_ID":"2021-132AG","EPOCH":"2026-05-20T12:08:42.091008","MEAN_MOTION":13.1868675,"ECCENTRICITY":0.0002002,"INCLINATION":87.9175,"RA_OF_ASC_NODE":340.9425,"ARG_OF_PERICENTER":93.211,"MEAN_ANOMALY":266.9252,"EPHEMERIS_TYPE":0,"CLASSIFICATION_TYPE":"U","NORAD_CAT_ID":50499,"ELEMENT_SET_NO":999,"REV_AT_EPOCH":21796,"BSTAR":0.00012263,"MEAN_MOTION_DOT":6.1e-07,"MEAN_MOTION_DDOT":0.0},{"OBJECT_NAME":"ONEWEB-0429","OBJECT_ID":"2021-132AH","EPOCH":"2026-05-20T11:49:16.510944","MEAN_MOTION":13.18688892,"ECCENTRICITY":0.0001758,"INCLINATION":87.9164,"RA_OF_ASC_NODE":340.972,"ARG_OF_PERICENTER":84.0799,"MEAN_ANOMALY":276.0534,"EPHEMERIS_TYPE":0,"CLASSIFICATION_TYPE":"U","NORAD_CAT_ID":50500,"ELEMENT_SET_NO":999,"REV_AT_EPOCH":21793,"BSTAR":4.6692e-06,"MEAN_MOTION_DOT":1.5e-07,"MEAN_MOTION_DDOT":0.0}]